*******************************************************************************
Ephemeris / WWW_USER Mon Mar 24 08:03:52 2025 Pasadena, USA      / Horizons    
*******************************************************************************
Target body name: (2018 US2)                      {source: JPL#14}
Center body name: Earth (399)                     {source: DE441}
Center-site name: Mauna Kea
*******************************************************************************
Start time      : A.D. 2018-Dec-22 03:58:00.0000 UT      
Stop  time      : A.D. 2018-Dec-22 16:42:00.0000 UT      
Step-size       : 1 minutes
*******************************************************************************
Target pole/equ : undefined
Target radii    : undefined                                                    
Center geodetic : 204.5278, 19.8260847, 4.21024   {E-lon(deg),Lat(deg),Alt(km)}
Center cylindric: 204.5278, 6006.35451, 2151.0229 {E-lon(deg),Dxy(km),Dz(km)}
Center pole/equ : ITRF93                          {East-longitude positive}
Center radii    : 6378.137, 6378.137, 6356.752 km {Equator_a, b, pole_c}       
Target primary  : Sun
Vis. interferer : MOON (R_eq= 1737.400) km        {source: DE441}
Rel. light bend : Sun                             {source: DE441}
Rel. lght bnd GM: 1.3271E+11 km^3/s^2                                          
Small-body perts: Yes                             {source: SB441-N16}
Atmos refraction: NO (AIRLESS)
RA format       : HMS
Time format     : CAL 
Calendar mode   : Mixed Julian/Gregorian
RTS-only print  : NO       
EOP file        : eop.250321.p250617                                           
EOP coverage    : DATA-BASED 1962-JAN-20 TO 2025-MAR-21. PREDICTS-> 2025-JUN-16
Units conversion: 1 au= 149597870.700 km, c= 299792.458 km/s, 1 day= 86400.0 s 
Table cut-offs 1: Elevation (-90.0deg=NO ),Airmass (>38.000=NO), Daylight (YES)
Table cut-offs 2: Solar elongation (  0.0,180.0=NO ),Local Hour Angle( 0.0=NO )
Table cut-offs 3: RA/DEC angular rate (     0.0=NO )                           
*******************************************************************************
Initial IAU76/J2000 heliocentric ecliptic osculating elements (au, days, deg.):
  EPOCH=  2458424.5 ! 2018-Nov-02.00 (TDB)         Residual RMS= .2503         
   EC= .6580934192644969   QR= 1.019516546973241   TP= 2458405.4003266119      
   OM= 225.9089147719754   W=  151.3321843630243   IN= 7.044798776353047       
  Equivalent ICRF heliocentric cartesian coordinates (au, au/d):
   X= 8.026033061055595E-01  Y= 6.200562709856074E-01  Z= 2.826199844552283E-01
  VX=-1.102263624249032E-02 VY= 1.780430100977025E-02 VZ= 4.937770740848229E-03
Asteroid physical parameters (km, seconds, rotational period in hours):        
   GM= n.a.                RAD= n.a.               ROTPER= n.a.                
   H= 24.88                G= .150                 B-V= n.a.                   
                           ALBEDO= n.a.            STYP= n.a.                  
*******************************************************************************
 Date__(UT)__HR:MN     R.A._________(ICRF)_________DEC
******************************************************
$$SOE
 2018-Dec-22 03:58 Cm  05 07 35.525430 +07 10 48.98117
 2018-Dec-22 03:59 Cm  05 07 35.532950 +07 10 49.15095
 2018-Dec-22 04:00 Cm  05 07 35.540443 +07 10 49.32074
 2018-Dec-22 04:01 Cm  05 07 35.547911 +07 10 49.49052
 2018-Dec-22 04:02 Cm  05 07 35.555353 +07 10 49.66031
 2018-Dec-22 04:03 Cm  05 07 35.562770 +07 10 49.83009
 2018-Dec-22 04:04 Cm  05 07 35.570160 +07 10 49.99988
 2018-Dec-22 04:05 Cm  05 07 35.577526 +07 10 50.16966
 2018-Dec-22 04:06 Cm  05 07 35.584865 +07 10 50.33944
 2018-Dec-22 04:07 Cm  05 07 35.592180 +07 10 50.50923
 2018-Dec-22 04:08 Cm  05 07 35.599468 +07 10 50.67901
 2018-Dec-22 04:09 Cm  05 07 35.606731 +07 10 50.84879
 2018-Dec-22 04:10 Cm  05 07 35.613969 +07 10 51.01857
 2018-Dec-22 04:11 Cm  05 07 35.621181 +07 10 51.18834
 2018-Dec-22 04:12 Cm  05 07 35.628367 +07 10 51.35812
 2018-Dec-22 04:13 Nm  05 07 35.635529 +07 10 51.52789
 2018-Dec-22 04:14 Nm  05 07 35.642664 +07 10 51.69766
 2018-Dec-22 04:15 Nm  05 07 35.649775 +07 10 51.86743
 2018-Dec-22 04:16 Nm  05 07 35.656860 +07 10 52.03719
 2018-Dec-22 04:17 Nm  05 07 35.663920 +07 10 52.20695
 2018-Dec-22 04:18 Nm  05 07 35.670954 +07 10 52.37671
 2018-Dec-22 04:19 Nm  05 07 35.677963 +07 10 52.54646
 2018-Dec-22 04:20 Nm  05 07 35.684947 +07 10 52.71621
 2018-Dec-22 04:21 Nm  05 07 35.691906 +07 10 52.88596
 2018-Dec-22 04:22 Nm  05 07 35.698839 +07 10 53.05570
 2018-Dec-22 04:23 Nm  05 07 35.705747 +07 10 53.22544
 2018-Dec-22 04:24 Nm  05 07 35.712630 +07 10 53.39518
 2018-Dec-22 04:25 Nm  05 07 35.719488 +07 10 53.56491
 2018-Dec-22 04:26 Nm  05 07 35.726321 +07 10 53.73463
 2018-Dec-22 04:27 Nm  05 07 35.733129 +07 10 53.90435
 2018-Dec-22 04:28 Nm  05 07 35.739912 +07 10 54.07406
 2018-Dec-22 04:29 Nm  05 07 35.746670 +07 10 54.24377
 2018-Dec-22 04:30 Nm  05 07 35.753403 +07 10 54.41347
 2018-Dec-22 04:31 Nm  05 07 35.760110 +07 10 54.58317
 2018-Dec-22 04:32 Nm  05 07 35.766793 +07 10 54.75286
 2018-Dec-22 04:33 Nm  05 07 35.773452 +07 10 54.92254
 2018-Dec-22 04:34 Nm  05 07 35.780085 +07 10 55.09222
 2018-Dec-22 04:35 Nm  05 07 35.786693 +07 10 55.26189
 2018-Dec-22 04:36 Nm  05 07 35.793277 +07 10 55.43155
 2018-Dec-22 04:37 Nm  05 07 35.799836 +07 10 55.60121
 2018-Dec-22 04:38 Nm  05 07 35.806370 +07 10 55.77086
 2018-Dec-22 04:39 Nm  05 07 35.812880 +07 10 55.94050
 2018-Dec-22 04:40 Am  05 07 35.819365 +07 10 56.11013
 2018-Dec-22 04:41 Am  05 07 35.825826 +07 10 56.27976
 2018-Dec-22 04:42 Am  05 07 35.832261 +07 10 56.44937
 2018-Dec-22 04:43 Am  05 07 35.838673 +07 10 56.61898
 2018-Dec-22 04:44 Am  05 07 35.845060 +07 10 56.78858
 2018-Dec-22 04:45 Am  05 07 35.851422 +07 10 56.95817
 2018-Dec-22 04:46 Am  05 07 35.857760 +07 10 57.12776
 2018-Dec-22 04:47 Am  05 07 35.864074 +07 10 57.29733
 2018-Dec-22 04:48 Am  05 07 35.870363 +07 10 57.46689
 2018-Dec-22 04:49 Am  05 07 35.876628 +07 10 57.63644
 2018-Dec-22 04:50 Am  05 07 35.882869 +07 10 57.80599
 2018-Dec-22 04:51 Am  05 07 35.889086 +07 10 57.97552
 2018-Dec-22 04:52 Am  05 07 35.895279 +07 10 58.14505
 2018-Dec-22 04:53 Am  05 07 35.901447 +07 10 58.31456
 2018-Dec-22 04:54 Am  05 07 35.907591 +07 10 58.48406
 2018-Dec-22 04:55 Am  05 07 35.913712 +07 10 58.65355
 2018-Dec-22 04:56 Am  05 07 35.919808 +07 10 58.82303
 2018-Dec-22 04:57 Am  05 07 35.925880 +07 10 58.99250
 2018-Dec-22 04:58 Am  05 07 35.931929 +07 10 59.16196
 2018-Dec-22 04:59 Am  05 07 35.937954 +07 10 59.33141
 2018-Dec-22 05:00 Am  05 07 35.943954 +07 10 59.50084
 2018-Dec-22 05:01 Am  05 07 35.949932 +07 10 59.67026
 2018-Dec-22 05:02 Am  05 07 35.955885 +07 10 59.83967
 2018-Dec-22 05:03 Am  05 07 35.961815 +07 11 00.00907
 2018-Dec-22 05:04 Am  05 07 35.967721 +07 11 00.17845
 2018-Dec-22 05:05 Am  05 07 35.973603 +07 11 00.34783
 2018-Dec-22 05:06 Am  05 07 35.979462 +07 11 00.51719
 2018-Dec-22 05:07  m  05 07 35.985298 +07 11 00.68653
 2018-Dec-22 05:08  m  05 07 35.991110 +07 11 00.85586
 2018-Dec-22 05:09  m  05 07 35.996899 +07 11 01.02518
 2018-Dec-22 05:10  m  05 07 36.002664 +07 11 01.19449
 2018-Dec-22 05:11  m  05 07 36.008407 +07 11 01.36378
 2018-Dec-22 05:12  m  05 07 36.014126 +07 11 01.53306
 2018-Dec-22 05:13  m  05 07 36.019821 +07 11 01.70232
 2018-Dec-22 05:14  m  05 07 36.025494 +07 11 01.87157
 2018-Dec-22 05:15  m  05 07 36.031144 +07 11 02.04080
 2018-Dec-22 05:16  m  05 07 36.036770 +07 11 02.21002
 2018-Dec-22 05:17  m  05 07 36.042374 +07 11 02.37922
 2018-Dec-22 05:18  m  05 07 36.047955 +07 11 02.54841
 2018-Dec-22 05:19  m  05 07 36.053513 +07 11 02.71758
 2018-Dec-22 05:20  m  05 07 36.059048 +07 11 02.88674
 2018-Dec-22 05:21  m  05 07 36.064560 +07 11 03.05588
 2018-Dec-22 05:22  m  05 07 36.070050 +07 11 03.22500
 2018-Dec-22 05:23  m  05 07 36.075517 +07 11 03.39411
 2018-Dec-22 05:24  m  05 07 36.080962 +07 11 03.56320
 2018-Dec-22 05:25  m  05 07 36.086384 +07 11 03.73228
 2018-Dec-22 05:26  m  05 07 36.091783 +07 11 03.90134
 2018-Dec-22 05:27  m  05 07 36.097160 +07 11 04.07038
 2018-Dec-22 05:28  m  05 07 36.102515 +07 11 04.23940
 2018-Dec-22 05:29  m  05 07 36.107848 +07 11 04.40841
 2018-Dec-22 05:30  m  05 07 36.113158 +07 11 04.57740
 2018-Dec-22 05:31  m  05 07 36.118446 +07 11 04.74637
 2018-Dec-22 05:32  m  05 07 36.123712 +07 11 04.91533
 2018-Dec-22 05:33  m  05 07 36.128956 +07 11 05.08426
 2018-Dec-22 05:34  m  05 07 36.134178 +07 11 05.25318
 2018-Dec-22 05:35  m  05 07 36.139379 +07 11 05.42208
 2018-Dec-22 05:36  m  05 07 36.144557 +07 11 05.59096
 2018-Dec-22 05:37  m  05 07 36.149713 +07 11 05.75982
 2018-Dec-22 05:38  m  05 07 36.154848 +07 11 05.92866
 2018-Dec-22 05:39  m  05 07 36.159961 +07 11 06.09749
 2018-Dec-22 05:40  m  05 07 36.165053 +07 11 06.26629
 2018-Dec-22 05:41  m  05 07 36.170122 +07 11 06.43508
 2018-Dec-22 05:42  m  05 07 36.175171 +07 11 06.60384
 2018-Dec-22 05:43  m  05 07 36.180198 +07 11 06.77259
 2018-Dec-22 05:44  m  05 07 36.185204 +07 11 06.94131
 2018-Dec-22 05:45  m  05 07 36.190188 +07 11 07.11001
 2018-Dec-22 05:46  m  05 07 36.195151 +07 11 07.27870
 2018-Dec-22 05:47  m  05 07 36.200093 +07 11 07.44736
 2018-Dec-22 05:48  m  05 07 36.205014 +07 11 07.61601
 2018-Dec-22 05:49  m  05 07 36.209914 +07 11 07.78463
 2018-Dec-22 05:50  m  05 07 36.214793 +07 11 07.95323
 2018-Dec-22 05:51  m  05 07 36.219651 +07 11 08.12181
 2018-Dec-22 05:52  m  05 07 36.224488 +07 11 08.29036
 2018-Dec-22 05:53  m  05 07 36.229305 +07 11 08.45890
 2018-Dec-22 05:54  m  05 07 36.234101 +07 11 08.62742
 2018-Dec-22 05:55  m  05 07 36.238876 +07 11 08.79591
 2018-Dec-22 05:56  m  05 07 36.243631 +07 11 08.96438
 2018-Dec-22 05:57  m  05 07 36.248365 +07 11 09.13283
 2018-Dec-22 05:58  m  05 07 36.253079 +07 11 09.30125
 2018-Dec-22 05:59  m  05 07 36.257772 +07 11 09.46965
 2018-Dec-22 06:00  m  05 07 36.262445 +07 11 09.63803
